{"type": "FeatureCollection", "features": [{"type": "Feature", "properties": {"norad_id": 24946, "name": "IRIDIUM 33", "group": "iridium-33-debris", "lat": 34.50065023138621, "lon": -116.66507078689115, "alt_km": 768.3108616717509, "timestamp": "2025-12-18T10:51:26.195371+00:00", "meta": {"OBJECT_NAME": "IRIDIUM 33", "OBJECT_ID": "1997-051C", "EPOCH": "2025-12-17T17:26:49.792416", "MEAN_MOTION": 14.35040933, "ECCENTRICITY": 0.00076325, "INCLINATION": 86.3868, "RA_OF_ASC_NODE": 66.1284, "ARG_OF_PERICENTER": 183.1964, "MEAN_ANOMALY": 176.9185, "EPHEMERIS_TYPE": 0, "CLASSIFICATION_TYPE": "U", "NORAD_CAT_ID": 24946, "ELEMENT_SET_NO": 999, "REV_AT_EPOCH": 47906, "BSTAR": 9.4616572e-05, "MEAN_MOTION_DOT": 2.89e-06, "MEAN_MOTION_DDOT": 0}, "tle": {"line1": "1 24946U 97051C   25351.72696519  .00000289  00000+0  94617-4 0  9997", "line2": "2 24946  86.3868  66.1284 0007632 183.1964 176.9185 14.35040933479068"}}, "geometry": {"type": "Point", "coordinates": [-116.66507078689115, 34.50065023138621]}}, {"type": "Feature", "properties": {"norad_id": 33773, "name": "IRIDIUM 33 DEB", "group": "iridium-33-debris", "lat": -86.15360237053639, "lon": -11.252843783517426, "alt_km": 762.4192126501603, "timestamp": "2025-12-18T10:51:26.195420+00:00", "meta": {"OBJECT_NAME": "IRIDIUM 33 DEB", "OBJECT_ID": "1997-051L", "EPOCH": "2025-12-17T16:57:54.033696", "MEAN_MOTION": 14.4326766, "ECCENTRICITY": 0.0012911, "INCLINATION": 86.4007, "RA_OF_ASC_NODE": 58.4847, "ARG_OF_PERICENTER": 131.888, "MEAN_ANOMALY": 228.3425, "EPHEMERIS_TYPE": 0, "CLASSIFICATION_TYPE": "U", "NORAD_CAT_ID": 33773, "ELEMENT_SET_NO": 999, "REV_AT_EPOCH": 88419, "BSTAR": 0.00024372163, "MEAN_MOTION_DOT": 8.41e-06, "MEAN_MOTION_DDOT": 0}, "tle": {"line1": "1 33773U 97051L   25351.70687539  .00000841  00000+0  24372-3 0  9999", "line2": "2 33773  86.4007  58.4847 0012911 131.8880 228.3425 14.43267660884194"}}, "geometry": {"type": "Point", "coordinates": [-11.252843783517426, -86.15360237053639]}}, {"type": "Feature", "properties": {"norad_id": 33775, "name": "IRIDIUM 33 DEB", "group": "iridium-33-debris", "lat": -41.948814611647215, "lon": 43.837948118880995, "alt_km": 770.8476393887267, "timestamp": "2025-12-18T10:51:26.195437+00:00", "meta": {"OBJECT_NAME": "IRIDIUM 33 DEB", "OBJECT_ID": "1997-051N", "EPOCH": "2025-12-17T15:38:54.873600", "MEAN_MOTION": 14.41478888, "ECCENTRICITY": 0.00147915, "INCLINATION": 86.3633, "RA_OF_ASC_NODE": 47.4565, "ARG_OF_PERICENTER": 139.7829, "MEAN_ANOMALY": 347.5614, "EPHEMERIS_TYPE": 0, "CLASSIFICATION_TYPE": "U", "NORAD_CAT_ID": 33775, "ELEMENT_SET_NO": 999, "REV_AT_EPOCH": 88211, "BSTAR": 0.00025546522, "MEAN_MOTION_DOT": 8.5e-06, "MEAN_MOTION_DDOT": 0}, "tle": {"line1": "1 33775U 97051N   25351.65202400  .00000850  00000+0  25547-3 0  9990", "line2": "2 33775  86.3633  47.4565 0014791 139.7829 347.5614 14.41478888882111"}}, "geometry": {"type": "Point", "coordinates": [43.837948118880995, -41.948814611647215]}}, {"type": "Feature", "properties": {"norad_id": 33776, "name": "IRIDIUM 33 DEB", "group": "iridium-33-debris", "lat": 58.58629036451496, "lon": -107.53350605894043, "alt_km": 751.9375158002158, "timestamp": "2025-12-18T10:51:26.195451+00:00", "meta": {"OBJECT_NAME": "IRIDIUM 33 DEB", "OBJECT_ID": "1997-051P", "EPOCH": "2025-12-17T18:11:14.951616", "MEAN_MOTION": 14.38243892, "ECCENTRICITY": 0.00149517, "INCLINATION": 86.4037, "RA_OF_ASC_NODE": 78.6687, "ARG_OF_PERICENTER": 174.003, "MEAN_ANOMALY": 313.2973, "EPHEMERIS_TYPE": 0, "CLASSIFICATION_TYPE": "U", "NORAD_CAT_ID": 33776, "ELEMENT_SET_NO": 999, "REV_AT_EPOCH": 88154, "BSTAR": 0.00022372109, "MEAN_MOTION_DOT": 7e-06, "MEAN_MOTION_DDOT": 0}, "tle": {"line1": "1 33776U 97051P   25351.75781194  .00000700  00000+0  22372-3 0  9991", "line2": "2 33776  86.4037  78.6687 0014951 174.0030 313.2973 14.38243892881541"}}, "geometry": {"type": "Point", "coordinates": [-107.53350605894043, 58.58629036451496]}}, {"type": "Feature", "properties": {"norad_id": 33777, "name": "IRIDIUM 33 DEB", "group": "iridium-33-debris", "lat": -84.81073113289618, "lon": -103.0610158986557, "alt_km": 711.8033882859245, "timestamp": "2025-12-18T10:51:26.195464+00:00", "meta": {"OBJECT_NAME": "IRIDIUM 33 DEB", "OBJECT_ID": "1997-051Q", "EPOCH": "2025-12-17T20:26:20.611680", "MEAN_MOTION": 14.55650268, "ECCENTRICITY": 0.00055247, "INCLINATION": 86.3782, "RA_OF_ASC_NODE": 32.98, "ARG_OF_PERICENTER": 226.0144, "MEAN_ANOMALY": 134.0609, "EPHEMERIS_TYPE": 0, "CLASSIFICATION_TYPE": "U", "NORAD_CAT_ID": 33777, "ELEMENT_SET_NO": 999, "REV_AT_EPOCH": 88608, "BSTAR": 0.00063602135, "MEAN_MOTION_DOT": 2.797e-05, "MEAN_MOTION_DDOT": 0}, "tle": {"line1": "1 33777U 97051Q   25351.85162745  .00002797  00000+0  63602-3 0  9997", "line2": "2 33777  86.3782  32.9800 0005524 226.0144 134.0609 14.55650268886085"}}, "geometry": {"type": "Point", "coordinates": [-103.0610158986557, -84.81073113289618]}}, {"type": "Feature", "properties": {"norad_id": 33850, "name": "IRIDIUM 33 DEB", "group": "iridium-33-debris", "lat": -47.066785949795694, "lon": 23.77952567730307, "alt_km": 767.2180606441598, "timestamp": "2025-12-18T10:51:26.195477+00:00", "meta": {"OBJECT_NAME": "IRIDIUM 33 DEB", "OBJECT_ID": "1997-051T", "EPOCH": "2025-12-17T20:53:21.588000", "MEAN_MOTION": 14.42157373, "ECCENTRICITY": 0.00127776, "INCLINATION": 86.3413, "RA_OF_ASC_NODE": 27.9734, "ARG_OF_PERICENTER": 145.463, "MEAN_ANOMALY": 27.7297, "EPHEMERIS_TYPE": 0, "CLASSIFICATION_TYPE": "U", "NORAD_CAT_ID": 33850, "ELEMENT_SET_NO": 999, "REV_AT_EPOCH": 88226, "BSTAR": 0.00027618964, "MEAN_MOTION_DOT": 9.29e-06, "MEAN_MOTION_DDOT": 0}, "tle": {"line1": "1 33850U 97051T   25351.87038875  .00000929  00000+0  27619-3 0  9990", "line2": "2 33850  86.3413  27.9734 0012777 145.4630  27.7297 14.42157373882262"}}, "geometry": {"type": "Point", "coordinates": [23.77952567730307, -47.066785949795694]}}, {"type": "Feature", "properties": {"norad_id": 33853, "name": "IRIDIUM 33 DEB", "group": "iridium-33-debris", "lat": 10.189059383850465, "lon": 166.58573779590012, "alt_km": 796.9199624239809, "timestamp": "2025-12-18T10:51:26.195490+00:00", "meta": {"OBJECT_NAME": "IRIDIUM 33 DEB", "OBJECT_ID": "1997-051W", "EPOCH": "2025-12-17T22:07:32.571264", "MEAN_MOTION": 13.99091464, "ECCENTRICITY": 0.02071243, "INCLINATION": 85.9999, "RA_OF_ASC_NODE": 347.5388, "ARG_OF_PERICENTER": 219.7969, "MEAN_ANOMALY": 161.3659, "EPHEMERIS_TYPE": 0, "CLASSIFICATION_TYPE": "U", "NORAD_CAT_ID": 33853, "ELEMENT_SET_NO": 999, "REV_AT_EPOCH": 85418, "BSTAR": 0.0013890199, "MEAN_MOTION_DOT": 2.432e-05, "MEAN_MOTION_DDOT": 0}, "tle": {"line1": "1 33853U 97051W   25351.92190476  .00002432  00000+0  13890-2 0  9991", "line2": "2 33853  85.9999 347.5388 0207124 219.7969 161.3659 13.99091464854183"}}, "geometry": {"type": "Point", "coordinates": [166.58573779590012, 10.189059383850465]}}, {"type": "Feature", "properties": {"norad_id": 33860, "name": "IRIDIUM 33 DEB", "group": "iridium-33-debris", "lat": 45.17969232795513, "lon": 28.359318862205214, "alt_km": 663.719092520937, "timestamp": "2025-12-18T10:51:26.195503+00:00", "meta": {"OBJECT_NAME": "IRIDIUM 33 DEB", "OBJECT_ID": "1997-051AD", "EPOCH": "2025-12-17T20:44:12.939360", "MEAN_MOTION": 14.67430284, "ECCENTRICITY": 0.00068026, "INCLINATION": 86.383, "RA_OF_ASC_NODE": 24.9702, "ARG_OF_PERICENTER": 338.9928, "MEAN_ANOMALY": 200.2334, "EPHEMERIS_TYPE": 0, "CLASSIFICATION_TYPE": "U", "NORAD_CAT_ID": 33860, "ELEMENT_SET_NO": 999, "REV_AT_EPOCH": 88797, "BSTAR": 0.00087666322, "MEAN_MOTION_DOT": 4.982e-05, "MEAN_MOTION_DDOT": 0}, "tle": {"line1": "1 33860U 97051AD  25351.86403865  .00004982  00000+0  87666-3 0  9996", "line2": "2 33860  86.3830  24.9702 0006802 338.9928 200.2334 14.67430284887974"}}, "geometry": {"type": "Point", "coordinates": [28.359318862205214, 45.17969232795513]}}, {"type": "Feature", "properties": {"norad_id": 33862, "name": "IRIDIUM 33 DEB", "group": "iridium-33-debris", "lat": 55.0815731758593, "lon": -150.14949395826784, "alt_km": 647.3113269804389, "timestamp": "2025-12-18T10:51:26.195515+00:00", "meta": {"OBJECT_NAME": "IRIDIUM 33 DEB", "OBJECT_ID": "1997-051AF", "EPOCH": "2025-12-17T15:13:23.215008", "MEAN_MOTION": 14.69553333, "ECCENTRICITY": 0.00529911, "INCLINATION": 86.409, "RA_OF_ASC_NODE": 35.3724, "ARG_OF_PERICENTER": 52.7991, "MEAN_ANOMALY": 66.1029, "EPHEMERIS_TYPE": 0, "CLASSIFICATION_TYPE": "U", "NORAD_CAT_ID": 33862, "ELEMENT_SET_NO": 999, "REV_AT_EPOCH": 88895, "BSTAR": 0.0010243514, "MEAN_MOTION_DOT": 6.236e-05, "MEAN_MOTION_DDOT": 0}, "tle": {"line1": "1 33862U 97051AF  25351.63429647  .00006236  00000+0  10244-2 0  9990", "line2": "2 33862  86.4090  35.3724 0052991  52.7991  66.1029 14.69553333888958"}}, "geometry": {"type": "Point", "coordinates": [-150.14949395826784, 55.0815731758593]}}, {"type": "Feature", "properties": {"norad_id": 33866, "name": "IRIDIUM 33 DEB", "group": "iridium-33-debris", "lat": -0.016310360490217498, "lon": 90.61785325067785, "alt_km": 876.2533046684348, "timestamp": "2025-12-18T10:51:26.195525+00:00", "meta": {"OBJECT_NAME": "IRIDIUM 33 DEB", "OBJECT_ID": "1997-051AK", "EPOCH": "2025-12-17T18:44:06.185760", "MEAN_MOTION": 14.25290921, "ECCENTRICITY": 0.01148399, "INCLINATION": 86.3002, "RA_OF_ASC_NODE": 90.9031, "ARG_OF_PERICENTER": 145.4116, "MEAN_ANOMALY": 10.8129, "EPHEMERIS_TYPE": 0, "CLASSIFICATION_TYPE": "U", "NORAD_CAT_ID": 33866, "ELEMENT_SET_NO": 999, "REV_AT_EPOCH": 86882, "BSTAR": 0.0004477839, "MEAN_MOTION_DOT": 1.149e-05, "MEAN_MOTION_DDOT": 0}, "tle": {"line1": "1 33866U 97051AK  25351.78062715  .00001149  00000+0  44778-3 0  9997", "line2": "2 33866  86.3002  90.9031 0114839 145.4116  10.8129 14.25290921868825"}}, "geometry": {"type": "Point", "coordinates": [90.61785325067785, -0.016310360490217498]}}]}